{
    "links": {
        "self": "http://www.neowsapp.com/rest/v1/neo/3703547?api_key=iIulBulltgU6a56xZRHN4H3l9WmuAYTsLGpBGhQ2"
    },
    "id": "3703547",
    "neo_reference_id": "3703547",
    "name": "(2015 AN44)",
    "designation": "2015 AN44",
    "nasa_jpl_url": "http://ssd.jpl.nasa.gov/sbdb.cgi?sstr=3703547",
    "absolute_magnitude_h": 25.2,
    "estimated_diameter": {
        "kilometers": {
            "estimated_diameter_min": 0.0242412481,
            "estimated_diameter_max": 0.0542050786
        },
        "meters": {
            "estimated_diameter_min": 24.2412481101,
            "estimated_diameter_max": 54.2050786336
        },
        "miles": {
            "estimated_diameter_min": 0.0150628086,
            "estimated_diameter_max": 0.0336814639
        },
        "feet": {
            "estimated_diameter_min": 79.5316564495,
            "estimated_diameter_max": 177.8381901842
        }
    },
    "is_potentially_hazardous_asteroid": false,
    "close_approach_data": [
        {
            "close_approach_date": "2012-02-03",
            "close_approach_date_full": "2012-Feb-03 21:56",
            "epoch_date_close_approach": 1328306160000,
            "relative_velocity": {
                "kilometers_per_second": "10.3312848027",
                "kilometers_per_hour": "37192.6252896376",
                "miles_per_hour": "23110.0509751084"
            },
            "miss_distance": {
                "astronomical": "0.2996761053",
                "lunar": "116.5740049617",
                "kilometers": "44830907.042775711",
                "miles": "27856633.9071023718"
            },
            "orbiting_body": "Earth"
        },
        {
            "close_approach_date": "2015-01-16",
            "close_approach_date_full": "2015-Jan-16 05:00",
            "epoch_date_close_approach": 1421384400000,
            "relative_velocity": {
                "kilometers_per_second": "8.6146612096",
                "kilometers_per_hour": "31012.7803544791",
                "miles_per_hour": "19270.135659704"
            },
            "miss_distance": {
                "astronomical": "0.0451673646",
                "lunar": "17.5701048294",
                "kilometers": "6756941.537673402",
                "miles": "4198568.7812888676"
            },
            "orbiting_body": "Earth"
        },
        {
            "close_approach_date": "2018-01-01",
            "close_approach_date_full": "2018-Jan-01 16:48",
            "epoch_date_close_approach": 1514825280000,
            "relative_velocity": {
                "kilometers_per_second": "14.5577470083",
                "kilometers_per_hour": "52407.8892298642",
                "miles_per_hour": "32564.2242828564"
            },
            "miss_distance": {
                "astronomical": "0.3223900496",
                "lunar": "125.4097292944",
                "kilometers": "48228864.729354352",
                "miles": "29968026.9069479776"
            },
            "orbiting_body": "Earth"
        },
        {
            "close_approach_date": "2077-01-05",
            "close_approach_date_full": "2077-Jan-05 07:20",
            "epoch_date_close_approach": 3377056800000,
            "relative_velocity": {
                "kilometers_per_second": "12.6909138684",
                "kilometers_per_hour": "45687.2899261799",
                "miles_per_hour": "28388.3052321866"
            },
            "miss_distance": {
                "astronomical": "0.2439658894",
                "lunar": "94.9027309766",
                "kilometers": "36496777.406895578",
                "miles": "22678045.8856838564"
            },
            "orbiting_body": "Earth"
        }
    ],
    "orbital_data": {
        "orbit_id": "4",
        "orbit_determination_date": "2017-04-06 08:36:25",
        "first_observation_date": "2015-01-15",
        "last_observation_date": "2015-01-17",
        "data_arc_in_days": 2,
        "observations_used": 32,
        "orbit_uncertainty": "8",
        "minimum_orbit_intersection": ".0445263",
        "jupiter_tisserand_invariant": "4.955",
        "epoch_osculation": "2457038.5",
        "eccentricity": ".2218725566881744",
        "semi_major_axis": "1.296678031675377",
        "inclination": "14.54257306281219",
        "ascending_node_longitude": "112.8177944427806",
        "orbital_period": "539.3201622505732",
        "perihelion_distance": "1.008980761586172",
        "perihelion_argument": "27.85393874235989",
        "aphelion_distance": "1.584375301764583",
        "perihelion_time": "2457061.875398611400",
        "mean_anomaly": "344.3967570858323",
        "mean_motion": ".6675070305136128",
        "equinox": "J2000",
        "orbit_class": {
            "orbit_class_type": "APO",
            "orbit_class_description": "Near-Earth asteroid orbits which cross the Earth’s orbit similar to that of 1862 Apollo",
            "orbit_class_range": "a (semi-major axis) > 1.0 AU; q (perihelion) < 1.017 AU"
        }
    },
    "is_sentry_object": false
}